{"fetched_at":"2026-03-29T02:12:04Z","count":15717,"tles":[{"name":"STARLINK-34491","line1":"1 64780U 25147AB  26087.55818186  .00012182  00000+0  42274-3 0  9994","line2":"2 64780  53.1591 154.8839 0001260  73.5975 286.5164 15.30200607 41645","category":"Starlink"}]}